P/2020 G1 (Pimentel),e,18.5094,240.1253,207.5953,3.608370,0.1437929,0.86036331,162.5423,04/22.0/2023,2000,g 17.0,4.0
# From MPEC 2022-YB4
C/2020 H2 (Pruyne),e,124.9180,277.6646,26.6700,189.8446,0.0003768,0.99562042,0.0000,04/27.8208/2020,2000,g 14.0,3.2
# From MPEC 2020-HM1
C/2020 H3 (Wierzchos),p,06/05.7162/2020,62.5292,30.4456,2.300288,270.6227,2000,13.5,4.0
# From MPEC 2020-L06
C/2020 H4 (Leonard),e,84.4977,307.6519,117.5445,47.86104,0.0029767,0.98068091,0.0000,08/29.6389/2020,2000,g 15.0,3.2
# From MPEC 2023-HD1
C/2020 H5 (Robinson),e,70.2546,210.6274,326.3426,3863,0.0000041,0.99758162,0.0000,12/10.8493/2020,2000,g  9.3,4.0
# From MPEC 2023-HD1
C/2020 H6 (ATLAS),e,79.9777,213.7191,20.3065,10716,0.0000009,0.99956124,0.0000,09/30.7177/2021,2000,g  9.4,4.0
# From MPEC 2020-KB7
C/2020 H7 (Lemmon),e,135.9235,323.5194,82.6780,1405,0.0000187,0.99685380,0.0000,06/02.9510/2020,2000,g 11.0,4.0
# From MPEC 2021-N06
C/2020 H8 (PANSTARRS),e,99.6873,68.4258,128.9386,597.3023,0.0000675,0.99217327,0.0000,06/04.5090/2020,2000,g 10.5,4.0
# From MPEC 2022-ED3
A/2020 H9,e,137.8788,213.1804,312.8358,371.2846,0.0001378,0.99306707,0.0000,12/21.6250/2019,2000,g 18.0,2.0
# From MPEC 2023-HD1
C/2020 J1 (SONEAR),h,04/18.6337/2021,142.3050,226.6036,341.7445,1.000754,3.353437,2000,9.0,4.0
# From MPEC 2023-HD1
C/2020 K1 (PANSTARRS),e,89.6705,94.3553,213.9842,200831,0.0000000,0.99998470,0.0000,05/09.0825/2023,2000,g  8.6,4.0
# From MPEC 2021-N06
C/2020 K2 (PANSTARRS),h,08/06.3541/2020,91.0282,288.3928,67.3506,1.003888,8.879886,2000,10.8,4.0
# From MPEC 2020-KF9
C/2020 K3 (Leonard),p,06/01.0032/2020,129.0152,64.4924,1.583069,28.3546,2000,14.5,4.0
# From MPEC 2020-L06
C/2020 K4 (PANSTARRS),e,125.5828,264.1922,308.8610,23.96210,0.0084027,0.92681172,9.6131,04/22.0/2023,2000,g 16.5,4.0
# From MPEC 2021-R75
C/2020 K5 (PANSTARRS),h,06/05.4705/2021,67.1167,86.1624,249.6113,1.001381,1.536725,2000,11.0,4.0
# From MPEC 2023-HD1
C/2020 K6 (Rankin),h,09/15.8295/2021,103.6497,291.5526,44.3361,1.003683,5.868869,2000,11.6,4.0
# From MPEC 2023-A50
C/2020 K7 (PANSTARRS),e,32.0418,286.0794,358.2556,98.72122,0.0010048,0.93523596,1.2780,04/22.0/2023,2000,g  8.0,4.0
# From MPEC 2021-P47
C/2020 K8 (Catalina-ATLAS),h,09/14.8346/2020,31.4260,181.5365,259.9601,1.000183,0.472030,2000,15.0,3.2
# From MPEC 2021-BE3
P/2020 K9 (Lemmon-PANSTARRS),e,23.2082,166.2437,197.0575,4.202795,0.1143923,0.32127765,91.3541,04/22.0/2023,2000,g 12.5,4.0
# From MPEC 2023-C45
P/2020 M1 (PANSTARRS),e,8.5386,142.6313,72.6459,5.317141,0.0803872,0.47380525,97.5018,04/22.0/2023,2000,g 14.5,4.0
# From MPEC 2022-H30
C/2020 M3 (ATLAS),e,23.4769,71.1618,328.5570,27.09535,0.0069881,0.95318533,6.3461,04/22.0/2023,2000,g 14.5,4.0
# From MPEC 2023-B57
A/2020 M4,h,11/24.1824/2020,160.1254,348.6229,104.6369,1.001032,5.950914,2000,14.5,2.0
# From MPC xxxxx
P/2020 MK4 (PANSTARRS),e,6.7993,0.7154,103.5574,6.204305,0.0637770,0.01179124,257.0159,04/22.0/2023,2000,g  8.0,4.0
# From MPEC 2023-FK0
C/2020 M5 (ATLAS),h,08/19.8586/2021,93.2195,352.0902,126.3057,1.000401,3.002901,2000,9.0,4.0
# From MPEC 2022-GA9
C/2020 N1 (PANSTARRS),h,03/12.3438/2021,29.7247,279.9284,186.7600,1.000467,1.318611,2000,12.5,4.0
# From MPEC 2021-P47
C/2020 N2 (ATLAS),e,161.0339,257.1574,331.3137,104.5170,0.0009224,0.98284704,0.0000,08/24.0769/2020,2000,g 16.0,3.2
# From MPEC 2023-HD1
C/2020 O2 (Amaral),h,08/28.5276/2021,71.7602,256.7722,10.3048,1.001620,4.862413,2000,9.4,4.0
# From MPEC 2023-C45
P/2020 O3 (PANSTARRS),e,8.4442,266.8186,81.6458,4.647812,0.0983629,0.10314064,79.8445,04/22.0/2023,2000,g 12.0,4.0
# From MPEC 2021-BE3
C/2020 P1 (NEOWISE),h,10/20.4269/2020,45.1721,53.4865,8.8903,1.000316,0.341014,2000,14.0,3.2
# From MPEC 2023-HD1
C/2020 P3 (ATLAS),h,04/21.3474/2021,61.8893,19.4657,82.2748,1.001419,6.812547,2000,9.7,4.0
# From MPEC 2022-PB4
C/2020 PV6 (PANSTARRS),e,128.2271,329.1489,71.3852,42.06661,0.0036124,0.94544194,2.0696,04/22.0/2023,2000,g 10.0,4.0
# From MPEC 2022-L66
C/2020 Q1 (Borisov),e,142.9417,52.3896,9.9559,60.90384,0.0020737,0.97836194,0.0000,08/14.4274/2020,2000,g 14.0,4.0
# From MPEC 2023-CD7
C/2020 Q2 (PANSTARRS),e,3.3362,179.8287,118.2653,10.64884,0.0283629,0.49220132,33.4131,04/22.0/2023,2000,g 12.0,3.2
# From MPEC 2022-X67
C/2020 R2 (PANSTARRS),e,53.2282,195.0933,211.7923,409.4642,0.0001190,0.98853917,0.0000,02/24.8928/2022,2000,g  9.0,4.0
# From MPEC 2022-K19
C/2020 R4 (ATLAS),e,164.4520,323.2724,46.6885,99.81292,0.0009884,0.98971081,0.0000,03/02.1633/2021,2000,g 13.5,4.0
# From MPEC 2023-C45
P/2020 R5 (PANSTARRS),e,11.4451,272.9693,82.6178,4.987416,0.0884893,0.31449478,93.5806,04/22.0/2023,2000,g  9.5,6.0
# From MPEC 2021-Y10
C/2020 R6 (Rankin),e,82.8126,12.1785,271.9921,316.0777,0.0001754,0.99008483,0.0000,09/08.5523/2019,2000,g 11.0,4.0
# From MPEC 2023-HD1
C/2020 R7 (ATLAS),h,09/16.2524/2022,114.8959,268.2839,347.8414,1.000233,2.955988,2000,10.2,4.0
# From MPEC 2021-BE3
P/2020 S1 (PANSTARRS),e,13.7282,129.4623,255.0272,5.992987,0.0671799,0.50773363,55.3870,04/22.0/2023,2000,g 14.0,4.0
# From MPEC 2022-ST7
C/2020 S2 (PANSTARRS),e,22.4043,197.6625,202.3443,10.22240,0.0301561,0.82812695,25.6569,04/22.0/2023,2000,g 17.0,4.0
# From MPEC 2022-C56
C/2020 S3 (Erasmus),e,20.0175,222.5979,350.0948,152.6538,0.0005226,0.99740511,0.0000,12/12.0579/2020,2000,g 13.5,3.2
# From MPEC 2023-HD1
C/2020 S4 (PANSTARRS),h,02/09.2400/2023,20.5691,117.7207,20.9921,1.001294,3.369732,2000,10.8,4.0
# From MPEC 2021-BE3
P/2020 S5 (PANSTARRS),e,12.3474,315.9994,53.2231,4.054337,0.1207325,0.33847186,119.0303,04/22.0/2023,2000,g 14.5,4.0
# From MPEC 2021-BE3
P/2020 S7 (PANSTARRS),e,16.0872,328.0290,40.5869,5.030705,0.0873496,0.41067125,77.2391,04/22.0/2023,2000,g 14.5,4.0
# From MPEC 2021-P47
C/2020 S8 (Lemmon),e,108.5275,24.0679,160.2763,263.3514,0.0002306,0.99103285,0.0000,04/10.8265/2021,2000,g 12.5,4.0
# From MPEC 2022-ST7
C/2020 T2 (Palomar),e,27.8552,82.9699,150.5186,306.8361,0.0001834,0.99329492,0.0000,07/11.0214/2021,2000,g 11.0,3.2
# From MPEC 2021-N06
P/2020 T3 (PANSTARRS),e,7.2989,73.9889,357.0401,3.516984,0.1494337,0.59209578,122.7158,04/22.0/2023,2000,g 18.0,3.2
# From MPEC 2021-N06
C/2020 T4 (PANSTARRS),h,07/05.3365/2021,83.8397,50.6149,79.6070,1.000253,2.191415,2000,13.0,3.2
# From MPEC 2021-BE3
C/2020 T5 (Lemmon),e,66.5599,237.8419,90.3356,748.9643,0.0000481,0.99747471,0.0000,10/09.3306/2020,2000,g 16.0,4.0
# From MPEC 2021-N06
P/2020 U2 (PANSTARRS),e,6.4195,342.8839,84.6477,3.778055,0.1342152,0.51112084,113.6731,04/22.0/2023,2000,g 18.0,4.0
# From MPEC 2021-W31
C/2020 U3 (Rankin),e,30.1575,282.6417,124.3437,66.52233,0.0018166,0.96576832,1.4620,04/22.0/2023,2000,g 15.0,4.0
# From MPEC 2023-CD7
C/2020 U4 (PANSTARRS),h,04/09.4409/2022,167.0239,120.2953,69.9840,1.001847,5.357550,2000,7.0,4.0
# From MPEC 2022-YB4
C/2020 U5 (PANSTARRS),e,97.2732,107.3270,75.4338,3818,0.0000042,0.99901609,0.0000,04/27.9635/2022,2000,g  8.0,4.0
# From MPEC 2023-HD1
C/2020 V2 (ZTF),h,05/08.5653/2023,131.6114,212.3716,162.4301,1.001089,2.227843,2000,7.8,4.0
# From MPEC 2023-D72
P/2020 V3 (PANSTARRS),e,23.0330,198.2523,249.3652,8.385325,0.0405905,0.25692805,32.5426,04/22.0/2023,2000,g  8.3,4.0
# From MPEC 2023-FK0
P/2020 V4 (Rankin),e,14.2442,203.4830,257.0342,9.368323,0.0343725,0.45043772,22.0928,04/22.0/2023,2000,g  9.0,4.0
# From MPEC 2021-BE3
P/2020 W1 (Rankin),e,10.7870,124.2721,265.1509,7.214616,0.0508609,0.26632596,56.3756,04/22.0/2023,2000,g 10.0,4.0
# From MPEC 2021-BE3
C/2020 W5 (Lemmon),h,11/30.1123/2020,88.5964,75.4698,24.5004,1.000794,3.365340,2000,15.0,4.0
# From MPEC 2023-HD1
P/2020 WJ5 (Lemmon),e,22.2934,177.8090,338.1765,6.015960,0.0667954,0.17135584,44.0903,04/22.0/2023,2000,g 11.9,4.0
# From MPEC 2021-P47
P/2020 X1 (ATLAS),e,31.6929,55.9910,323.4307,4.530838,0.1021966,0.36546171,102.7210,04/22.0/2023,2000,g 13.0,4.0
# From MPEC 2021-U31
C/2020 X2 (ATLAS),e,18.1850,105.4210,347.3740,16.45377,0.0147675,0.76739972,13.0974,04/22.0/2023,2000,g 10.6,4.0
# From MPEC 2021-S45
C/2020 X4 (Leonard),e,80.6072,161.8829,140.3065,40.70361,0.0037954,0.87170176,3.3667,04/22.0/2023,2000,g  9.0,4.0
# From MPEC 2023-D72
C/2020 Y2 (ATLAS),e,101.3004,26.5128,266.1455,1169,0.0000247,0.99731918,0.0000,06/17.8540/2022,2000,g  6.5,4.0
# From MPEC 2021-R75
C/2020 Y3 (ATLAS),e,83.1015,191.4400,341.9540,142.8090,0.0005775,0.98602113,0.0000,12/03.3235/2020,2000,g 13.5,4.0
# From MPEC 2023-CD7
C/2021 A1 (Leonard),h,01/03.2857/2022,132.7093,255.8982,225.1115,1.000014,0.615709,2000,8.5,4.0
# From MPEC 2022-F14
C/2021 A2 (NEOWISE),e,106.9872,125.1980,338.7851,233.5716,0.0002761,0.99395430,0.0000,01/22.4324/2021,2000,g 13.5,4.0
# From MPEC 2022-ED3
C/2021 A4 (NEOWISE),e,111.5367,307.1117,204.7085,42.47052,0.0035610,0.97298446,0.0000,03/19.7591/2021,2000,g 16.0,4.0
# From MPEC 2021-BE3
P/2021 A5 (PANSTARRS),e,18.1835,328.7616,61.3444,3.047722,0.1852427,0.13989821,164.9286,04/22.0/2023,2000,g 15.0,4.0
# From MPEC 2023-HD1
C/2021 A6 (PANSTARRS),e,75.6035,164.0748,351.6396,9207,0.0000011,0.99913911,0.0000,05/03.3248/2021,2000,g  9.0,4.0
# From MPEC 2022-M88
C/2021 A7 (NEOWISE),e,78.1533,154.5037,356.0108,2354,0.0000086,0.99916451,0.0000,07/15.1969/2021,2000,g 10.0,4.0
# From MPEC 2023-FK0
C/2021 A9 (PANSTARRS),h,12/01.6133/2023,158.0181,314.8407,211.4601,1.002180,7.760130,2000,6.0,4.0
# From MPEC 2021-N06
C/2021 A10 (NEOWISE),e,151.9243,188.6790,82.3639,87.84413,0.0011971,0.98562925,0.0000,03/15.0757/2021,2000,g 19.0,4.0
# From MPEC 2022-L66
C/2021 B2 (PANSTARRS),e,38.0851,120.5234,334.9788,362.0246,0.0001431,0.99306141,0.0000,05/04.3677/2021,2000,g 14.0,4.0
# From MPEC 2021-N06
C/2021 B3 (NEOWISE),e,119.4813,67.2853,293.5401,34.49294,0.0048653,0.93735193,3.7581,04/22.0/2023,2000,g 13.5,4.0
# From MPEC 2022-ED3
C/2021 C1 (Rankin),e,143.0449,186.8968,336.2358,8904,0.0000012,0.99960941,0.0000,12/06.9246/2020,2000,g 11.5,4.0
# From MPEC 2021-U31
P/2021 C2 (PANSTARRS),e,21.9352,66.4612,78.7256,9.534737,0.0334766,0.48739170,26.3590,04/22.0/2023,2000,g 12.0,4.0
# From MPEC 2021-N06
